[
    {
        "Altitude(m)": 611967.1806693337,
        "Argument of Periapsis(deg)": 0.0,
        "Eccentricity": 0.0,
        "Inclination(deg)": 60.0,
        "Latitude(deg)": 59.14016684206312,
        "Longitude(deg)": -178.9077563646551,
        "Mean Anomaly(deg)": 98.18179999999998,
        "RAAN(deg)": 175.0,
        "Satellite Name": "Test1 776",
        "Satellite Number": 776,
        "Semi-Major Axis(m)": 6980739.136638005,
        "Time(s)": 0
    },
    {
        "Altitude(m)": 611934.379813894,
        "Argument of Periapsis(deg)": 0.00010418945913296404,
        "Eccentricity": 0.0,
        "Inclination(deg)": 60.0,
        "Latitude(deg)": 58.986526840518536,
        "Longitude(deg)": -177.78451162470066,
        "Mean Anomaly(deg)": 98.80190614546184,
        "RAAN(deg)": 174.99957995086024,
        "Satellite Name": "Test1 776",
        "Satellite Number": 776,
        "Semi-Major Axis(m)": 6980739.136638005,
        "Time(s)": 10
    }
]